{
  "type": "FeatureCollection",
  "features": [
    {
      "type": "Feature",
      "properties": {
        "corridor": "NSR",
        "scenario": "NSR_VAR1_service",
        "length_nm": 28637.921163942505
      },
      "geometry": {
        "type": "LineString",
        "coordinates": [
          [
            4.14,
            51.95
          ],
          [
            4.047588,
            51.835844
          ],
          [
            3.996602,
            51.85732
          ],
          [
            3.9,
            52
          ],
          [
            3.327388,
            52.241911
          ],
          [
            3.32465,
            52.243068
          ],
          [
            3.028876,
            52.368023
          ],
          [
            3.207339,
            53.016127
          ],
          [
            3.219351,
            53.059747
          ],
          [
            3.34058,
            53.5
          ],
          [
            3.466687,
            53.95797
          ],
          [
            3.562695,
            54.306629
          ],
          [
            3.779946,
            55.095593
          ],
          [
            3.875166,
            55.441392
          ],
          [
            4.097765,
            56.249776
          ],
          [
            4.18583,
            56.569592
          ],
          [
            4.598436,
            58.068003
          ],
          [
            4.8,
            58.8
          ],
          [
            4.58339,
            59.305424
          ],
          [
            4.581717,
            59.309328
          ],
          [
            4.2,
            60.2
          ],
          [
            4.160202,
            60.91637
          ],
          [
            4.114615,
            61.736927
          ],
          [
            4.1,
            62
          ],
          [
            4.1784,
            62.961
          ],
          [
            12,
            68
          ],
          [
            17,
            70
          ],
          [
            20.921784,
            70.740799
          ],
          [
            23.4,
            71.15
          ],
          [
            27.1,
            71.3
          ],
          [
            25.529104,
            70.55032
          ],
          [
            27.1,
            71.3
          ],
          [
            32.034679,
            70.633107
          ],
          [
            45.833919,
            69.55166
          ],
          [
            56.9347,
            69.4851
          ],
          [
            57.55,
            70.2043
          ],
          [
            60.5382,
            71.2908
          ],
          [
            69.591,
            73.6808
          ],
          [
            72.2716,
            73.7425
          ],
          [
            76.2267,
            73.7178
          ],
          [
            81.738281,
            74.54333
          ],
          [
            89.824219,
            76.142958
          ],
          [
            93.515625,
            77.254479
          ],
          [
            100.546875,
            77.655346
          ],
          [
            105.732422,
            77.989049
          ],
          [
            114.169922,
            77.427824
          ],
          [
            119.970703,
            75.430979
          ],
          [
            122.080078,
            74.54333
          ],
          [
            127.089844,
            74.259738
          ],
          [
            130.429688,
            73.627789
          ],
          [
            132.1875,
            72.633374
          ],
          [
            135.878906,
            72.422268
          ],
          [
            138.691406,
            73.073844
          ],
          [
            145.5619,
            73.058584
          ],
          [
            152.566956,
            72.614433
          ],
          [
            159.257813,
            71.663663
          ],
          [
            152.566956,
            72.614433
          ],
          [
            145.5619,
            73.058584
          ],
          [
            138.691406,
            73.073844
          ],
          [
            135.878906,
            72.422268
          ],
          [
            132.1875,
            72.633374
          ],
          [
            130.429688,
            73.627789
          ],
          [
            127.089844,
            74.259738
          ],
          [
            122.080078,
            74.54333
          ],
          [
            119.970703,
            75.430979
          ],
          [
            114.169922,
            77.427824
          ],
          [
            105.732422,
            77.989049
          ],
          [
            100.546875,
            77.655346
          ],
          [
            93.515625,
            77.254479
          ],
          [
            89.824219,
            76.142958
          ],
          [
            81.738281,
            74.54333
          ],
          [
            76.2267,
            73.7178
          ],
          [
            72.2716,
            73.7425
          ],
          [
            69.591,
            73.6808
          ],
          [
            60.5382,
            71.2908
          ],
          [
            57.55,
            70.2043
          ],
          [
            56.9347,
            69.4851
          ],
          [
            45.833919,
            69.55166
          ],
          [
            32.034679,
            70.633107
          ],
          [
            27.1,
            71.3
          ],
          [
            23.4,
            71.15
          ],
          [
            20.921784,
            70.740799
          ],
          [
            17,
            70
          ],
          [
            -8.6875,
            70.7581
          ],
          [
            -17.456723,
            69.574068
          ],
          [
            -24.4813,
            68.6256
          ],
          [
            -31.8191,
            66.9077
          ],
          [
            -36.8507,
            65.0304
          ],
          [
            -39.0171,
            62.9474
          ],
          [
            -40,
            60
          ],
          [
            -42.671671,
            57.674392
          ],
          [
            -45.24735,
            55.432342
          ],
          [
            -45.6257,
            55.103
          ],
          [
            -47.662265,
            52.727171
          ],
          [
            -50,
            50
          ],
          [
            -52.7,
            46.8
          ],
          [
            -54,
            46.1
          ],
          [
            -55,
            45
          ],
          [
            -60.5618,
            42.9936
          ],
          [
            -63.295397,
            41.804622
          ],
          [
            -64.632986,
            41.222837
          ],
          [
            -65.7532,
            40.7356
          ],
          [
            -66.667038,
            40.268045
          ],
          [
            -68.618387,
            39.26966
          ],
          [
            -68.792396,
            39.180631
          ],
          [
            -69.241398,
            38.950904
          ],
          [
            -69.630879,
            37.603901
          ],
          [
            -69.689012,
            37.40285
          ],
          [
            -69.761138,
            37.153403
          ],
          [
            -69.768342,
            37.128487
          ],
          [
            -69.889537,
            36.709339
          ],
          [
            -70.068112,
            36.091746
          ],
          [
            -70.079098,
            36.053753
          ],
          [
            -70.267,
            35.4039
          ],
          [
            -70.556671,
            34.260051
          ],
          [
            -70.580864,
            34.164518
          ],
          [
            -71.022856,
            32.419183
          ],
          [
            -71.249208,
            31.525368
          ],
          [
            -71.278986,
            31.407781
          ],
          [
            -71.435883,
            30.788227
          ],
          [
            -71.435887,
            30.788212
          ],
          [
            -71.518852,
            30.4606
          ],
          [
            -71.5636,
            30.2839
          ],
          [
            -71.593895,
            30.150475
          ],
          [
            -71.607312,
            30.09138
          ],
          [
            -71.789659,
            29.288279
          ],
          [
            -72.122525,
            27.822254
          ],
          [
            -72.315301,
            26.973219
          ],
          [
            -72.376461,
            26.703855
          ],
          [
            -72.573362,
            25.83665
          ],
          [
            -72.7297,
            25.1481
          ],
          [
            -72.899045,
            24.333557
          ],
          [
            -73.134922,
            23.198996
          ],
          [
            -73.492623,
            21.478473
          ],
          [
            -73.611956,
            20.904484
          ],
          [
            -73.796606,
            20.016325
          ],
          [
            -73.796666,
            20.016316
          ],
          [
            -73.798509,
            20.016025
          ],
          [
            -73.798945,
            20.015956
          ],
          [
            -73.800564,
            20.0157
          ],
          [
            -73.80122,
            20.015597
          ],
          [
            -73.804315,
            20.015108
          ],
          [
            -73.80617,
            20.014815
          ],
          [
            -73.808075,
            20.014514
          ],
          [
            -73.9,
            20
          ],
          [
            -75,
            18.5
          ],
          [
            -75.408284,
            17.801104
          ],
          [
            -75.900579,
            16.958398
          ],
          [
            -76.604059,
            15.754186
          ],
          [
            -77.5478,
            14.1387
          ],
          [
            -77.638723,
            13.975975
          ],
          [
            -80,
            9.75
          ],
          [
            -79.900612,
            9.208176
          ],
          [
            -79.821304,
            9.173012
          ],
          [
            -79.803246,
            9.118307
          ],
          [
            -79.741379,
            9.118236
          ],
          [
            -79.689331,
            9.10639
          ],
          [
            -79.641747,
            9.035982
          ],
          [
            -79.585922,
            8.992656
          ],
          [
            -79.494118,
            8.796576
          ],
          [
            -79.5,
            8.6
          ],
          [
            -80,
            7
          ],
          [
            -81.4,
            6.9
          ],
          [
            -82.8,
            7.4167
          ],
          [
            -87.997356,
            10.035818
          ],
          [
            -88.3178,
            10.1973
          ],
          [
            -89.110835,
            10.580401
          ],
          [
            -90.991341,
            11.48884
          ],
          [
            -93.9243,
            12.9057
          ],
          [
            -99.644,
            15.5163
          ],
          [
            -99.913376,
            15.63055
          ],
          [
            -105.5,
            18
          ],
          [
            -107.20629,
            19.341106
          ],
          [
            -108.2357,
            20.1502
          ],
          [
            -109.832589,
            21.395093
          ],
          [
            -111.0067,
            22.3104
          ],
          [
            -113.4508,
            24.926
          ],
          [
            -116.130461,
            27.989265
          ],
          [
            -117.491362,
            28.696433
          ],
          [
            -120,
            30
          ],
          [
            -122.269889,
            32.46791
          ],
          [
            -122.645883,
            32.876705
          ],
          [
            -124.684237,
            35.092881
          ],
          [
            -124.6929,
            35.1023
          ],
          [
            -125.084311,
            35.463517
          ],
          [
            -125.79613,
            36.120424
          ],
          [
            -126.186601,
            36.480774
          ],
          [
            -126.379475,
            36.65877
          ],
          [
            -129.449511,
            39.491976
          ],
          [
            -130,
            40
          ],
          [
            -130.834275,
            40.889326
          ],
          [
            -132.290903,
            42.442073
          ],
          [
            -132.364781,
            42.520826
          ],
          [
            -133.521718,
            43.754106
          ],
          [
            -133.790236,
            44.040343
          ],
          [
            -134.7191,
            45.0305
          ],
          [
            -135.11333,
            45.401483
          ],
          [
            -139.740465,
            49.755769
          ],
          [
            -140.000112,
            49.812838
          ],
          [
            -140.167264,
            49.849577
          ],
          [
            -140.851649,
            50
          ],
          [
            -144.0492,
            50.7028
          ],
          [
            -149.79205,
            52.31358
          ],
          [
            -150.618484,
            52.545381
          ],
          [
            -152.454508,
            53.060358
          ],
          [
            -155.0573,
            53.7904
          ],
          [
            -156.381717,
            53.791822
          ],
          [
            -156.3832,
            53.791823
          ],
          [
            -162.55969,
            54.272848
          ],
          [
            -164.907933,
            54.455729
          ],
          [
            -165.306951,
            54.743909
          ],
          [
            -165.0988,
            55.6981
          ],
          [
            -165.2534,
            56.5079
          ],
          [
            -166.5882,
            57.6046
          ],
          [
            -168.5744,
            59.0421
          ],
          [
            -168.8584,
            60.482
          ],
          [
            -168.5956,
            61.7786
          ],
          [
            -168.2719,
            62.4714
          ],
          [
            -167.3596,
            63.148
          ],
          [
            -167.0091,
            63.6305
          ],
          [
            -167.3135,
            63.9322
          ],
          [
            -168.039583,
            64.273455
          ],
          [
            -169.1182,
            64.7804
          ],
          [
            -169.3801,
            65.2653
          ],
          [
            -169.473087,
            65.57429
          ],
          [
            -169.1502,
            65.9622
          ],
          [
            -169.473087,
            65.57429
          ],
          [
            -169.3801,
            65.2653
          ],
          [
            -169.1182,
            64.7804
          ],
          [
            -168.039583,
            64.273455
          ],
          [
            -172.3,
            64.2
          ],
          [
            -180,
            62.1
          ],
          [
            -180,
            50
          ],
          [
            -180,
            50
          ],
          [
            -185.859907,
            50.687849
          ],
          [
            -187.645443,
            50.483925
          ],
          [
            -189.7961,
            50.2383
          ],
          [
            -190.21425,
            50.154218
          ],
          [
            -198.5627,
            48.4755
          ],
          [
            -199.074963,
            48.324829
          ],
          [
            -199.718651,
            48.041332
          ],
          [
            -201.168,
            47.403
          ],
          [
            -201.929445,
            47.012516
          ],
          [
            -205.2049,
            45.3328
          ],
          [
            -207.800613,
            43.806106
          ],
          [
            -208.9498,
            43.1302
          ],
          [
            148.341509,
            41.326793
          ],
          [
            147.5707,
            40.8136
          ],
          [
            146.810089,
            40.246961
          ],
          [
            144.3294,
            38.3989
          ],
          [
            141.3,
            35.9
          ],
          [
            139.9,
            34.8
          ],
          [
            139.3,
            35
          ]
        ]
      }
    }
  ]
}