{
  "type": "FeatureCollection",
  "features": [
    {
      "type": "Feature",
      "properties": {
        "corridor": "SUEZ",
        "scenario": "SUEZ_VAR1_service",
        "length_nm": 15291.27848787361
      },
      "geometry": {
        "type": "LineString",
        "coordinates": [
          [
            4.14,
            51.95
          ],
          [
            4.047588,
            51.835844
          ],
          [
            3.996602,
            51.85732
          ],
          [
            3.9,
            52
          ],
          [
            3.559619,
            51.659619
          ],
          [
            3.4,
            51.5
          ],
          [
            2.356699,
            51.178984
          ],
          [
            2.1,
            51.1
          ],
          [
            1.813195,
            50.988387
          ],
          [
            1.567687,
            50.892845
          ],
          [
            1.441366,
            50.849032
          ],
          [
            1.396366,
            50.760438
          ],
          [
            1.117257,
            50.563512
          ],
          [
            0.922738,
            50.518891
          ],
          [
            1.117257,
            50.563512
          ],
          [
            0.496389,
            50.420874
          ],
          [
            0.29692,
            50.375048
          ],
          [
            -0.337914,
            50.260643
          ],
          [
            -0.340268,
            50.260219
          ],
          [
            -0.364394,
            50.255871
          ],
          [
            -0.545959,
            50.196513
          ],
          [
            -0.671539,
            50.155459
          ],
          [
            -1.3,
            49.95
          ],
          [
            -1.47977,
            49.895072
          ],
          [
            -1.665743,
            49.838248
          ],
          [
            -1.93365,
            49.75639
          ],
          [
            -1.992006,
            49.738559
          ],
          [
            -2.39189,
            49.616376
          ],
          [
            -3.197043,
            49.370363
          ],
          [
            -3.986163,
            49.129249
          ],
          [
            -4.030414,
            49.115729
          ],
          [
            -4.270518,
            49.042365
          ],
          [
            -5.06401,
            48.799916
          ],
          [
            -5.5,
            48.6667
          ],
          [
            -6.698867,
            47.340067
          ],
          [
            -7.954994,
            45.668797
          ],
          [
            -8.49576,
            44.934776
          ],
          [
            -9.019938,
            43.924891
          ],
          [
            -9.142206,
            43.689329
          ],
          [
            -9.14264,
            43.688493
          ],
          [
            -9.143299,
            43.687223
          ],
          [
            -9.5,
            43
          ],
          [
            -9.9844,
            40.7798
          ],
          [
            -9.6,
            38.5
          ],
          [
            -9.452092,
            37.781589
          ],
          [
            -9.25,
            36.8
          ],
          [
            -8.219465,
            36.549727
          ],
          [
            -7.26966,
            36.31906
          ],
          [
            -5.75,
            35.95
          ],
          [
            -5.354867,
            35.968819
          ],
          [
            -5.269383,
            35.97289
          ],
          [
            -4.7,
            36
          ],
          [
            -3.683043,
            36.156455
          ],
          [
            -3.670714,
            36.158352
          ],
          [
            -3.264225,
            36.220888
          ],
          [
            -2.590675,
            36.324512
          ],
          [
            -2.244793,
            36.377724
          ],
          [
            -1.62439,
            36.473171
          ],
          [
            -0.366667,
            36.666667
          ],
          [
            3.1,
            37.2
          ],
          [
            7.5,
            37.4
          ],
          [
            10.1431,
            37.4851
          ],
          [
            10.372293,
            37.489085
          ],
          [
            11,
            37.5
          ],
          [
            11.172235,
            37.454891
          ],
          [
            11.827836,
            37.283186
          ],
          [
            12.086301,
            37.215493
          ],
          [
            12.097004,
            37.212689
          ],
          [
            12.110644,
            37.209117
          ],
          [
            13.263819,
            36.907095
          ],
          [
            15.2,
            36.4
          ],
          [
            16.726588,
            36.086854
          ],
          [
            17.902084,
            35.845726
          ],
          [
            21.407365,
            35.126694
          ],
          [
            23,
            34.8
          ],
          [
            24.926664,
            34.187436
          ],
          [
            25.478721,
            34.011915
          ],
          [
            26.306431,
            33.748752
          ],
          [
            27.6298,
            33.328
          ],
          [
            27.927542,
            33.219565
          ],
          [
            28.212434,
            33.115811
          ],
          [
            28.905525,
            32.863395
          ],
          [
            30.408377,
            32.316071
          ],
          [
            32.1,
            31.7
          ],
          [
            32.387159,
            31.298117
          ],
          [
            32.306671,
            30.945814
          ],
          [
            32.382202,
            30.318359
          ],
          [
            32.557983,
            30.213982
          ],
          [
            32.6,
            29.7
          ],
          [
            33.75,
            27.9
          ],
          [
            34.5,
            27
          ],
          [
            37,
            23.6
          ],
          [
            38.9,
            20.75
          ],
          [
            41.2,
            16.3
          ],
          [
            42,
            15
          ],
          [
            43.3,
            12.7
          ],
          [
            43.746586,
            12.40439
          ],
          [
            45,
            12
          ],
          [
            51,
            13
          ],
          [
            53.059021,
            12.577758
          ],
          [
            54.7085,
            12.2395
          ],
          [
            58.3951,
            11.4317
          ],
          [
            59.894005,
            11.083455
          ],
          [
            60.825733,
            10.866984
          ],
          [
            62.0601,
            10.5802
          ],
          [
            64.303249,
            10.031585
          ],
          [
            64.698862,
            9.934828
          ],
          [
            64.992809,
            9.862937
          ],
          [
            65.7044,
            9.6889
          ],
          [
            68.858995,
            8.881605
          ],
          [
            69.3291,
            8.7613
          ],
          [
            69.671733,
            8.6701
          ],
          [
            69.999915,
            8.582747
          ],
          [
            70.817426,
            8.365148
          ],
          [
            70.84994,
            8.356493
          ],
          [
            72.9354,
            7.8014
          ],
          [
            75.966807,
            6.966807
          ],
          [
            76.5251,
            6.8131
          ],
          [
            80.1,
            5.8
          ],
          [
            81.9,
            5.9
          ],
          [
            85.9479,
            6.1983
          ],
          [
            90,
            6.4664
          ],
          [
            94,
            6.7
          ],
          [
            97,
            7
          ],
          [
            100.6,
            3.2
          ],
          [
            102,
            2
          ],
          [
            103.6,
            1.1
          ],
          [
            104.482294,
            1.341312
          ],
          [
            109.934071,
            7.545272
          ],
          [
            111.913427,
            9.797721
          ],
          [
            115.044525,
            13.360816
          ],
          [
            119.9,
            14.4
          ],
          [
            119.4,
            17
          ],
          [
            120,
            19
          ],
          [
            123,
            19
          ],
          [
            124.413699,
            21.041861
          ],
          [
            124.53553,
            21.217826
          ],
          [
            125.4371,
            22.52
          ],
          [
            128,
            26
          ],
          [
            128.781876,
            26.282774
          ],
          [
            133.395352,
            27.951286
          ],
          [
            133.8895,
            28.13
          ],
          [
            135.371219,
            28.583451
          ],
          [
            136.643593,
            30.428384
          ],
          [
            137.1574,
            31.1734
          ],
          [
            137.503152,
            31.630595
          ],
          [
            139.417351,
            34.161782
          ],
          [
            139.616699,
            34.425385
          ],
          [
            139.9,
            34.8
          ],
          [
            139.3,
            35
          ]
        ]
      }
    }
  ]
}