{
  "type": "FeatureCollection",
  "features": [
    {
      "type": "Feature",
      "properties": {
        "corridor": "CAPE",
        "scenario": "CAPE_VAR1_service",
        "length_nm": 20955.10362663839
      },
      "geometry": {
        "type": "LineString",
        "coordinates": [
          [
            4.14,
            51.95
          ],
          [
            4.047588,
            51.835844
          ],
          [
            3.996602,
            51.85732
          ],
          [
            3.9,
            52
          ],
          [
            3.559619,
            51.659619
          ],
          [
            3.4,
            51.5
          ],
          [
            2.356699,
            51.178984
          ],
          [
            2.1,
            51.1
          ],
          [
            1.813195,
            50.988387
          ],
          [
            1.567687,
            50.892845
          ],
          [
            1.441366,
            50.849032
          ],
          [
            1.3,
            50.8
          ],
          [
            1.193894,
            50.765311
          ],
          [
            0.39288,
            50.503441
          ],
          [
            -0.343359,
            50.262748
          ],
          [
            -0.364394,
            50.255871
          ],
          [
            -0.545959,
            50.196513
          ],
          [
            -0.671539,
            50.155459
          ],
          [
            -1.3,
            49.95
          ],
          [
            -1.47977,
            49.895072
          ],
          [
            -1.665743,
            49.838248
          ],
          [
            -1.93365,
            49.75639
          ],
          [
            -1.992006,
            49.738559
          ],
          [
            -2.39189,
            49.616376
          ],
          [
            -3.197043,
            49.370363
          ],
          [
            -3.986163,
            49.129249
          ],
          [
            -4.030414,
            49.115729
          ],
          [
            -4.270518,
            49.042365
          ],
          [
            -5.06401,
            48.799916
          ],
          [
            -5.5,
            48.6667
          ],
          [
            -6.698867,
            47.340067
          ],
          [
            -7.954994,
            45.668797
          ],
          [
            -8.49576,
            44.934776
          ],
          [
            -9.019938,
            43.924891
          ],
          [
            -9.142206,
            43.689329
          ],
          [
            -9.14264,
            43.688493
          ],
          [
            -9.143299,
            43.687223
          ],
          [
            -9.5,
            43
          ],
          [
            -9.9844,
            40.7798
          ],
          [
            -9.6,
            38.5
          ],
          [
            -9.452092,
            37.781589
          ],
          [
            -9.25,
            36.8
          ],
          [
            -8.219465,
            36.549727
          ],
          [
            -7.26966,
            36.31906
          ],
          [
            -5.75,
            35.95
          ],
          [
            -7.1,
            34.4
          ],
          [
            -7.7875,
            34.076471
          ],
          [
            -8.751058,
            33.623031
          ],
          [
            -8.8,
            33.6
          ],
          [
            -10.1,
            31.8
          ],
          [
            -12.194387,
            29.156452
          ],
          [
            -13.618653,
            27.705078
          ],
          [
            -18,
            21
          ],
          [
            -18,
            15
          ],
          [
            -17,
            11
          ],
          [
            -13.4277,
            5.5302
          ],
          [
            -10,
            -2e-05
          ],
          [
            -5.531121,
            -5.586708
          ],
          [
            -1.989182,
            -10.0146
          ],
          [
            -1.100476,
            -11.1256
          ],
          [
            -1.087497,
            -11.141825
          ],
          [
            0.000405,
            -12.501846
          ],
          [
            1.7833,
            -14.7307
          ],
          [
            3.542734,
            -16.929822
          ],
          [
            5.653262,
            -19.567777
          ],
          [
            7.89386,
            -22.368307
          ],
          [
            10.425227,
            -25.53227
          ],
          [
            12.499733,
            -28.1252
          ],
          [
            18,
            -35
          ],
          [
            22,
            -35
          ],
          [
            26,
            -34.5
          ],
          [
            28.5,
            -33.5
          ],
          [
            32,
            -30
          ],
          [
            32.3667,
            -29.2302
          ],
          [
            33.2188,
            -27.5062
          ],
          [
            33.6882,
            -26.593
          ],
          [
            34,
            -26
          ],
          [
            36,
            -24
          ],
          [
            38.929,
            -19.5234
          ],
          [
            41.7,
            -15
          ],
          [
            45.2949,
            -14.0672
          ],
          [
            45.6,
            -14
          ],
          [
            45.9083,
            -13.6955
          ],
          [
            50,
            -10
          ],
          [
            54.286051,
            -10.031461
          ],
          [
            54.9998,
            -10.0367
          ],
          [
            60,
            -10
          ],
          [
            62.5333,
            -7.5169
          ],
          [
            64.95296,
            -5.104003
          ],
          [
            64.999898,
            -5.057196
          ],
          [
            64.9999,
            -5.057193
          ],
          [
            65.0379,
            -5.0193
          ],
          [
            66.708666,
            -3.334083
          ],
          [
            67.449371,
            -2.586972
          ],
          [
            67.5237,
            -2.512
          ],
          [
            70,
            -3e-05
          ],
          [
            73,
            4
          ],
          [
            74.822653,
            4.467475
          ],
          [
            76.5453,
            4.9093
          ],
          [
            80.1,
            5.8
          ],
          [
            81.9,
            5.9
          ],
          [
            85.9479,
            6.1983
          ],
          [
            90,
            6.4664
          ],
          [
            94,
            6.7
          ],
          [
            97,
            7
          ],
          [
            100.6,
            3.2
          ],
          [
            102,
            2
          ],
          [
            103.6,
            1.1
          ],
          [
            104.482294,
            1.341312
          ],
          [
            109.934071,
            7.545272
          ],
          [
            111.913427,
            9.797721
          ],
          [
            115.044525,
            13.360816
          ],
          [
            119.9,
            14.4
          ],
          [
            119.4,
            17
          ],
          [
            120,
            19
          ],
          [
            123,
            19
          ],
          [
            124.413699,
            21.041861
          ],
          [
            124.53553,
            21.217826
          ],
          [
            125.4371,
            22.52
          ],
          [
            128,
            26
          ],
          [
            128.781876,
            26.282774
          ],
          [
            133.395352,
            27.951286
          ],
          [
            133.8895,
            28.13
          ],
          [
            135.371219,
            28.583451
          ],
          [
            136.643593,
            30.428384
          ],
          [
            137.1574,
            31.1734
          ],
          [
            137.503152,
            31.630595
          ],
          [
            139.417351,
            34.161782
          ],
          [
            139.616699,
            34.425385
          ],
          [
            139.9,
            34.8
          ],
          [
            139.3,
            35
          ]
        ]
      }
    }
  ]
}