{
  "type": "FeatureCollection",
  "features": [
    {
      "type": "Feature",
      "properties": {
        "corridor": "NSR",
        "scenario": "NSR_VAR1_service"
      },
      "geometry": {
        "type": "LineString",
        "coordinates": [
          [
            4.139999999999986,
            51.94999999999999
          ],
          [
            4.04758799999999,
            51.83584400000001
          ],
          [
            3.9966019999999958,
            51.857320000000016
          ],
          [
            3.9000000000000057,
            52
          ],
          [
            3.3273880000000133,
            52.241911000000016
          ],
          [
            3.3246499999999912,
            52.243067999999994
          ],
          [
            3.028875999999997,
            52.368022999999994
          ],
          [
            3.2073389999999904,
            53.01612699999998
          ],
          [
            3.219350999999989,
            53.059747000000016
          ],
          [
            3.3405799999999886,
            53.5
          ],
          [
            3.4666870000000074,
            53.95796999999999
          ],
          [
            3.562694999999991,
            54.30662899999999
          ],
          [
            3.7799459999999954,
            55.09559300000001
          ],
          [
            3.875166000000007,
            55.44139200000001
          ],
          [
            4.09776500000001,
            56.249776
          ],
          [
            4.18583000000001,
            56.569592
          ],
          [
            4.598435999999992,
            58.068003000000004
          ],
          [
            4.800000000000011,
            58.80000000000001
          ],
          [
            4.5833900000000085,
            59.305424000000016
          ],
          [
            4.581716999999998,
            59.309327999999994
          ],
          [
            4.199999999999989,
            60.19999999999999
          ],
          [
            4.160201999999998,
            60.91637
          ],
          [
            4.114614999999986,
            61.73692700000001
          ],
          [
            4.099999999999994,
            62
          ],
          [
            4.1784000000000106,
            62.96100000000001
          ],
          [
            12.0,
            68
          ],
          [
            17.0,
            70
          ],
          [
            20.921784000000002,
            70.74079899999998
          ],
          [
            23.400000000000006,
            71.15
          ],
          [
            27.099999999999994,
            71.30000000000001
          ],
          [
            25.52910399999999,
            70.55032
          ],
          [
            27.099999999999994,
            71.30000000000001
          ],
          [
            32.03467899999998,
            70.633107
          ],
          [
            45.83391900000001,
            69.55166
          ],
          [
            56.93469999999999,
            69.48509999999999
          ],
          [
            57.55000000000001,
            70.20429999999999
          ],
          [
            60.53820000000002,
            71.29079999999999
          ],
          [
            69.59100000000001,
            73.6808
          ],
          [
            72.2716,
            73.7425
          ],
          [
            76.2267,
            73.71780000000001
          ],
          [
            81.73828100000003,
            74.54333
          ],
          [
            89.82421899999997,
            76.14295800000002
          ],
          [
            93.515625,
            77.254479
          ],
          [
            100.546875,
            77.65534600000001
          ],
          [
            105.73242199999999,
            77.98904900000002
          ],
          [
            114.16992199999999,
            77.42782399999999
          ],
          [
            119.97070300000001,
            75.43097899999998
          ],
          [
            122.08007800000001,
            74.54333
          ],
          [
            127.08984399999997,
            74.259738
          ],
          [
            130.429688,
            73.627789
          ],
          [
            132.1875,
            72.633374
          ],
          [
            135.87890600000003,
            72.422268
          ],
          [
            138.69140600000003,
            73.07384400000001
          ],
          [
            145.56190000000004,
            73.058584
          ],
          [
            152.566956,
            72.61443300000002
          ],
          [
            159.257813,
            71.66366299999999
          ],
          [
            179.60000000000002,
            69.0
          ],
          [
            -179.6,
            69.0
          ],
          [
            -169.0,
            66.0
          ],
          [
            -169.473087,
            65.57429000000002
          ],
          [
            -169.3801,
            65.2653
          ],
          [
            -169.1182,
            64.78039999999999
          ],
          [
            -168.039583,
            64.27345500000001
          ],
          [
            -172.3,
            64.19999999999999
          ],
          [
            -180.0,
            62.099999999999994
          ],
          [
            -180.0,
            50
          ],
          [
            -180.0,
            50
          ],
          [
            179.546718,
            52.44436200000001
          ],
          [
            -179.6,
            54.5
          ],
          [
            -180.0,
            50
          ],
          [
            -180.0,
            50
          ],
          [
            174.14009299999998,
            50.687849
          ],
          [
            172.354557,
            50.483925
          ],
          [
            170.20389999999998,
            50.23830000000001
          ],
          [
            169.78575,
            50.154218000000014
          ],
          [
            161.4373,
            48.47550000000001
          ],
          [
            160.92503699999997,
            48.324828999999994
          ],
          [
            160.28134899999998,
            48.04133200000001
          ],
          [
            158.832,
            47.40299999999999
          ],
          [
            158.070555,
            47.012516000000005
          ],
          [
            154.7951,
            45.33279999999999
          ],
          [
            152.199387,
            43.806106
          ],
          [
            151.05020000000002,
            43.1302
          ],
          [
            148.34150899999997,
            41.32679300000001
          ],
          [
            147.5707,
            40.81360000000001
          ],
          [
            146.810089,
            40.246961
          ],
          [
            144.32939999999996,
            38.3989
          ],
          [
            141.3,
            35.900000000000006
          ],
          [
            139.89999999999998,
            34.80000000000001
          ],
          [
            139.64999999999998,
            35.44999999999999
          ]
        ]
      }
    }
  ]
}