{
  "type": "FeatureCollection",
  "features": [
    {
      "type": "Feature",
      "properties": {
        "corridor": "NSR",
        "scenario": "NSR_VAR1_service",
        "type": "macro_waypoints_chain"
      },
      "geometry": {
        "type": "LineString",
        "coordinates": [
          [
            4.14,
            51.95
          ],
          [
            25.0,
            71.0
          ],
          [
            58.0,
            70.5
          ],
          [
            102.0,
            76.0
          ],
          [
            160.0,
            72.0
          ],
          [
            -169.0,
            66.0
          ],
          [
            150.0,
            43.0
          ],
          [
            140.0,
            35.0
          ],
          [
            139.65,
            35.45
          ]
        ]
      }
    }
  ]
}