{
  "type": "FeatureCollection",
  "features": [
    {
      "type": "Feature",
      "properties": {
        "corridor": "SUEZ",
        "scenario": "SUEZ_VAR1_service",
        "length_nm": 15291.27848787361
      },
      "geometry": {
        "type": "LineString",
        "coordinates": [
          [
            4.14,
            51.95
          ],
          [
            4.047588,
            51.835844
          ],
          [
            3.996602,
            51.85732
          ],
          [
            3.9,
            52
          ],
          [
            3.559619,
            51.659619
          ],
          [
            3.4,
            51.5
          ],
          [
            2.356699,
            51.178984
          ],
          [
            2.1,
            51.1
          ],
          [
            1.813195,
            50.988387
          ],
          [
            1.567687,
            50.892845
          ],
          [
            1.441366,
            50.849032
          ],
          [
            1.396366,
            50.760438
          ],
          [
            1.117257,
            50.563512
          ],
          [
            0.922738,
            50.518891
          ],
          [
            1.117257,
            50.563512
          ],
          [
            0.496389,
            50.420874
          ],
          [
            0.29692,
            50.375048
          ],
          [
            -0.337914,
            50.260643
          ],
          [
            -0.340268,
            50.260219
          ],
          [
            -0.364394,
            50.255871
          ],
          [
            -0.545959,
            50.196513
          ],
          [
            -0.671539,
            50.155459
          ],
          [
            -1.3,
            49.95
          ],
          [
            -1.47977,
            49.895072
          ],
          [
            -1.665743,
            49.838248
          ],
          [
            -1.93365,
            49.75639
          ],
          [
            -1.992006,
            49.738559
          ],
          [
            -2.39189,
            49.616376
          ],
          [
            -3.197043,
            49.370363
          ],
          [
            -3.986163,
            49.129249
          ],
          [
            -4.030414,
            49.115729
          ],
          [
            -4.270518,
            49.042365
          ],
          [
            -5.06401,
            48.799916
          ],
          [
            -5.5,
            48.6667
          ],
          [
            -6.698867,
            47.340067
          ],
          [
            -7.954994,
            45.668797
          ],
          [
            -8.49576,
            44.934776
          ],
          [
            -9.019938,
            43.924891
          ],
          [
            -9.142206,
            43.689329
          ],
          [
            -9.14264,
            43.688493
          ],
          [
            -9.143299,
            43.687223
          ],
          [
            -9.5,
            43
          ],
          [
            -9.9844,
            40.7798
          ],
          [
            -9.6,
            38.5
          ],
          [
            -9.452092,
            37.781589
          ],
          [
            -9.25,
            36.8
          ],
          [
            -8.219465,
            36.549727
          ],
          [
            -7.26966,
            36.31906
          ],
          [
            -5.75,
            35.95
          ],
          [
            -5.354867,
            35.968819
          ],
          [
            -5.269383,
            35.97289
          ],
          [
            -4.7,
            36
          ],
          [
            -3.683043,
            36.156455
          ],
          [
            -3.670714,
            36.158352
          ],
          [
            -3.264225,
            36.220888
          ],
          [
            -2.590675,
            36.324512
          ],
          [
            -2.244793,
            36.377724
          ],
          [
            -1.62439,
            36.473171
          ],
          [
            -0.366667,
            36.666667
          ],
          [
            3.1,
            37.2
          ],
          [
            7.5,
            37.4
          ],
          [
            10.1431,
            37.4851
          ],
          [
            10.372293,
            37.489085
          ],
          [
            11,
            37.5
          ],
          [
            11.172235,
            37.454891
          ],
          [
            11.827836,
            37.283186
          ],
          [
            12.086301,
            37.215493
          ],
          [
            12.097004,
            37.212689
          ],
          [
            12.110644,
            37.209117
          ],
          [
            13.263819,
            36.907095
          ],
          [
            15.2,
            36.4
          ],
          [
            16.726588,
            36.086854
          ],
          [
            17.902084,
            35.845726
          ],
          [
            21.407365,
            35.126694
          ],
          [
            23,
            34.8
          ],
          [
            24.926664,
            34.187436
          ],
          [
            25.478721,
            34.011915
          ],
          [
            26.306431,
            33.748752
          ],
          [
            27.6298,
            33.328
          ],
          [
            27.927542,
            33.219565
          ],
          [
            28.212434,
            33.115811
          ],
          [
            28.905525,
            32.863395
          ],
          [
            30.408377,
            32.316071
          ],
          [
            32.1,
            31.7
          ],
          [
            32.387159,
            31.298117
          ],
          [
            32.306671,
            30.945814
          ],
          [
            32.382202,
            30.318359
          ],
          [
            32.557983,
            30.213982
          ],
          [
            32.6,
            29.7
          ],
          [
            33.75,
            27.9
          ],
          [
            34.5,
            27
          ],
          [
            37,
            23.6
          ],
          [
            38.9,
            20.75
          ],
          [
            41.2,
            16.3
          ],
          [
            42,
            15
          ],
          [
            43.3,
            12.7
          ],
          [
            43.746586,
            12.40439
          ],
          [
            45,
            12
          ],
          [
            51,
            13
          ],
          [
            53.059021,
            12.577758
          ],
          [
            54.7085,
            12.2395
          ],
          [
            58.3951,
            11.4317
          ],
          [
            59.894005,
            11.083455
          ],
          [
            60.825733,
            10.866984
          ],
          [
            62.0601,
            10.5802
          ],
          [
            64.303249,
            10.031585
          ],
          [
            64.698862,
            9.934828
          ],
          [
            64.992809,
            9.862937
          ],
          [
            65.7044,
            9.6889
          ],
          [
            68.858995,
            8.881605
          ],
          [
            69.3291,
            8.7613
          ],
          [
            69.671733,
            8.6701
          ],
          [
            69.999915,
            8.582747
          ],
          [
            70.817426,
            8.365148
          ],
          [
            70.84994,
            8.356493
          ],
          [
            72.9354,
            7.8014
          ],
          [
            75.966807,
            6.966807
          ],
          [
            76.5251,
            6.8131
          ],
          [
            80.1,
            5.8
          ],
          [
            81.9,
            5.9
          ],
          [
            85.9479,
            6.1983
          ],
          [
            90,
            6.4664
          ],
          [
            94,
            6.7
          ],
          [
            97,
            7
          ],
          [
            100.6,
            3.2
          ],
          [
            102,
            2
          ],
          [
            103.6,
            1.1
          ],
          [
            104.482294,
            1.341312
          ],
          [
            109.934071,
            7.545272
          ],
          [
            111.913427,
            9.797721
          ],
          [
            115.044525,
            13.360816
          ],
          [
            119.9,
            14.4
          ],
          [
            119.4,
            17
          ],
          [
            120,
            19
          ],
          [
            123,
            19
          ],
          [
            124.413699,
            21.041861
          ],
          [
            124.53553,
            21.217826
          ],
          [
            125.4371,
            22.52
          ],
          [
            128,
            26
          ],
          [
            128.781876,
            26.282774
          ],
          [
            133.395352,
            27.951286
          ],
          [
            133.8895,
            28.13
          ],
          [
            135.371219,
            28.583451
          ],
          [
            136.643593,
            30.428384
          ],
          [
            137.1574,
            31.1734
          ],
          [
            137.503152,
            31.630595
          ],
          [
            139.417351,
            34.161782
          ],
          [
            139.616699,
            34.425385
          ],
          [
            139.9,
            34.8
          ],
          [
            139.3,
            35
          ]
        ]
      }
    },
    {
      "type": "Feature",
      "properties": {
        "corridor": "NSR",
        "scenario": "NSR_VAR1_service",
        "length_nm": 28637.921163942505
      },
      "geometry": {
        "type": "LineString",
        "coordinates": [
          [
            4.14,
            51.95
          ],
          [
            4.047588,
            51.835844
          ],
          [
            3.996602,
            51.85732
          ],
          [
            3.9,
            52
          ],
          [
            3.327388,
            52.241911
          ],
          [
            3.32465,
            52.243068
          ],
          [
            3.028876,
            52.368023
          ],
          [
            3.207339,
            53.016127
          ],
          [
            3.219351,
            53.059747
          ],
          [
            3.34058,
            53.5
          ],
          [
            3.466687,
            53.95797
          ],
          [
            3.562695,
            54.306629
          ],
          [
            3.779946,
            55.095593
          ],
          [
            3.875166,
            55.441392
          ],
          [
            4.097765,
            56.249776
          ],
          [
            4.18583,
            56.569592
          ],
          [
            4.598436,
            58.068003
          ],
          [
            4.8,
            58.8
          ],
          [
            4.58339,
            59.305424
          ],
          [
            4.581717,
            59.309328
          ],
          [
            4.2,
            60.2
          ],
          [
            4.160202,
            60.91637
          ],
          [
            4.114615,
            61.736927
          ],
          [
            4.1,
            62
          ],
          [
            4.1784,
            62.961
          ],
          [
            12,
            68
          ],
          [
            17,
            70
          ],
          [
            20.921784,
            70.740799
          ],
          [
            23.4,
            71.15
          ],
          [
            27.1,
            71.3
          ],
          [
            25.529104,
            70.55032
          ],
          [
            27.1,
            71.3
          ],
          [
            32.034679,
            70.633107
          ],
          [
            45.833919,
            69.55166
          ],
          [
            56.9347,
            69.4851
          ],
          [
            57.55,
            70.2043
          ],
          [
            60.5382,
            71.2908
          ],
          [
            69.591,
            73.6808
          ],
          [
            72.2716,
            73.7425
          ],
          [
            76.2267,
            73.7178
          ],
          [
            81.738281,
            74.54333
          ],
          [
            89.824219,
            76.142958
          ],
          [
            93.515625,
            77.254479
          ],
          [
            100.546875,
            77.655346
          ],
          [
            105.732422,
            77.989049
          ],
          [
            114.169922,
            77.427824
          ],
          [
            119.970703,
            75.430979
          ],
          [
            122.080078,
            74.54333
          ],
          [
            127.089844,
            74.259738
          ],
          [
            130.429688,
            73.627789
          ],
          [
            132.1875,
            72.633374
          ],
          [
            135.878906,
            72.422268
          ],
          [
            138.691406,
            73.073844
          ],
          [
            145.5619,
            73.058584
          ],
          [
            152.566956,
            72.614433
          ],
          [
            159.257813,
            71.663663
          ],
          [
            152.566956,
            72.614433
          ],
          [
            145.5619,
            73.058584
          ],
          [
            138.691406,
            73.073844
          ],
          [
            135.878906,
            72.422268
          ],
          [
            132.1875,
            72.633374
          ],
          [
            130.429688,
            73.627789
          ],
          [
            127.089844,
            74.259738
          ],
          [
            122.080078,
            74.54333
          ],
          [
            119.970703,
            75.430979
          ],
          [
            114.169922,
            77.427824
          ],
          [
            105.732422,
            77.989049
          ],
          [
            100.546875,
            77.655346
          ],
          [
            93.515625,
            77.254479
          ],
          [
            89.824219,
            76.142958
          ],
          [
            81.738281,
            74.54333
          ],
          [
            76.2267,
            73.7178
          ],
          [
            72.2716,
            73.7425
          ],
          [
            69.591,
            73.6808
          ],
          [
            60.5382,
            71.2908
          ],
          [
            57.55,
            70.2043
          ],
          [
            56.9347,
            69.4851
          ],
          [
            45.833919,
            69.55166
          ],
          [
            32.034679,
            70.633107
          ],
          [
            27.1,
            71.3
          ],
          [
            23.4,
            71.15
          ],
          [
            20.921784,
            70.740799
          ],
          [
            17,
            70
          ],
          [
            -8.6875,
            70.7581
          ],
          [
            -17.456723,
            69.574068
          ],
          [
            -24.4813,
            68.6256
          ],
          [
            -31.8191,
            66.9077
          ],
          [
            -36.8507,
            65.0304
          ],
          [
            -39.0171,
            62.9474
          ],
          [
            -40,
            60
          ],
          [
            -42.671671,
            57.674392
          ],
          [
            -45.24735,
            55.432342
          ],
          [
            -45.6257,
            55.103
          ],
          [
            -47.662265,
            52.727171
          ],
          [
            -50,
            50
          ],
          [
            -52.7,
            46.8
          ],
          [
            -54,
            46.1
          ],
          [
            -55,
            45
          ],
          [
            -60.5618,
            42.9936
          ],
          [
            -63.295397,
            41.804622
          ],
          [
            -64.632986,
            41.222837
          ],
          [
            -65.7532,
            40.7356
          ],
          [
            -66.667038,
            40.268045
          ],
          [
            -68.618387,
            39.26966
          ],
          [
            -68.792396,
            39.180631
          ],
          [
            -69.241398,
            38.950904
          ],
          [
            -69.630879,
            37.603901
          ],
          [
            -69.689012,
            37.40285
          ],
          [
            -69.761138,
            37.153403
          ],
          [
            -69.768342,
            37.128487
          ],
          [
            -69.889537,
            36.709339
          ],
          [
            -70.068112,
            36.091746
          ],
          [
            -70.079098,
            36.053753
          ],
          [
            -70.267,
            35.4039
          ],
          [
            -70.556671,
            34.260051
          ],
          [
            -70.580864,
            34.164518
          ],
          [
            -71.022856,
            32.419183
          ],
          [
            -71.249208,
            31.525368
          ],
          [
            -71.278986,
            31.407781
          ],
          [
            -71.435883,
            30.788227
          ],
          [
            -71.435887,
            30.788212
          ],
          [
            -71.518852,
            30.4606
          ],
          [
            -71.5636,
            30.2839
          ],
          [
            -71.593895,
            30.150475
          ],
          [
            -71.607312,
            30.09138
          ],
          [
            -71.789659,
            29.288279
          ],
          [
            -72.122525,
            27.822254
          ],
          [
            -72.315301,
            26.973219
          ],
          [
            -72.376461,
            26.703855
          ],
          [
            -72.573362,
            25.83665
          ],
          [
            -72.7297,
            25.1481
          ],
          [
            -72.899045,
            24.333557
          ],
          [
            -73.134922,
            23.198996
          ],
          [
            -73.492623,
            21.478473
          ],
          [
            -73.611956,
            20.904484
          ],
          [
            -73.796606,
            20.016325
          ],
          [
            -73.796666,
            20.016316
          ],
          [
            -73.798509,
            20.016025
          ],
          [
            -73.798945,
            20.015956
          ],
          [
            -73.800564,
            20.0157
          ],
          [
            -73.80122,
            20.015597
          ],
          [
            -73.804315,
            20.015108
          ],
          [
            -73.80617,
            20.014815
          ],
          [
            -73.808075,
            20.014514
          ],
          [
            -73.9,
            20
          ],
          [
            -75,
            18.5
          ],
          [
            -75.408284,
            17.801104
          ],
          [
            -75.900579,
            16.958398
          ],
          [
            -76.604059,
            15.754186
          ],
          [
            -77.5478,
            14.1387
          ],
          [
            -77.638723,
            13.975975
          ],
          [
            -80,
            9.75
          ],
          [
            -79.900612,
            9.208176
          ],
          [
            -79.821304,
            9.173012
          ],
          [
            -79.803246,
            9.118307
          ],
          [
            -79.741379,
            9.118236
          ],
          [
            -79.689331,
            9.10639
          ],
          [
            -79.641747,
            9.035982
          ],
          [
            -79.585922,
            8.992656
          ],
          [
            -79.494118,
            8.796576
          ],
          [
            -79.5,
            8.6
          ],
          [
            -80,
            7
          ],
          [
            -81.4,
            6.9
          ],
          [
            -82.8,
            7.4167
          ],
          [
            -87.997356,
            10.035818
          ],
          [
            -88.3178,
            10.1973
          ],
          [
            -89.110835,
            10.580401
          ],
          [
            -90.991341,
            11.48884
          ],
          [
            -93.9243,
            12.9057
          ],
          [
            -99.644,
            15.5163
          ],
          [
            -99.913376,
            15.63055
          ],
          [
            -105.5,
            18
          ],
          [
            -107.20629,
            19.341106
          ],
          [
            -108.2357,
            20.1502
          ],
          [
            -109.832589,
            21.395093
          ],
          [
            -111.0067,
            22.3104
          ],
          [
            -113.4508,
            24.926
          ],
          [
            -116.130461,
            27.989265
          ],
          [
            -117.491362,
            28.696433
          ],
          [
            -120,
            30
          ],
          [
            -122.269889,
            32.46791
          ],
          [
            -122.645883,
            32.876705
          ],
          [
            -124.684237,
            35.092881
          ],
          [
            -124.6929,
            35.1023
          ],
          [
            -125.084311,
            35.463517
          ],
          [
            -125.79613,
            36.120424
          ],
          [
            -126.186601,
            36.480774
          ],
          [
            -126.379475,
            36.65877
          ],
          [
            -129.449511,
            39.491976
          ],
          [
            -130,
            40
          ],
          [
            -130.834275,
            40.889326
          ],
          [
            -132.290903,
            42.442073
          ],
          [
            -132.364781,
            42.520826
          ],
          [
            -133.521718,
            43.754106
          ],
          [
            -133.790236,
            44.040343
          ],
          [
            -134.7191,
            45.0305
          ],
          [
            -135.11333,
            45.401483
          ],
          [
            -139.740465,
            49.755769
          ],
          [
            -140.000112,
            49.812838
          ],
          [
            -140.167264,
            49.849577
          ],
          [
            -140.851649,
            50
          ],
          [
            -144.0492,
            50.7028
          ],
          [
            -149.79205,
            52.31358
          ],
          [
            -150.618484,
            52.545381
          ],
          [
            -152.454508,
            53.060358
          ],
          [
            -155.0573,
            53.7904
          ],
          [
            -156.381717,
            53.791822
          ],
          [
            -156.3832,
            53.791823
          ],
          [
            -162.55969,
            54.272848
          ],
          [
            -164.907933,
            54.455729
          ],
          [
            -165.306951,
            54.743909
          ],
          [
            -165.0988,
            55.6981
          ],
          [
            -165.2534,
            56.5079
          ],
          [
            -166.5882,
            57.6046
          ],
          [
            -168.5744,
            59.0421
          ],
          [
            -168.8584,
            60.482
          ],
          [
            -168.5956,
            61.7786
          ],
          [
            -168.2719,
            62.4714
          ],
          [
            -167.3596,
            63.148
          ],
          [
            -167.0091,
            63.6305
          ],
          [
            -167.3135,
            63.9322
          ],
          [
            -168.039583,
            64.273455
          ],
          [
            -169.1182,
            64.7804
          ],
          [
            -169.3801,
            65.2653
          ],
          [
            -169.473087,
            65.57429
          ],
          [
            -169.1502,
            65.9622
          ],
          [
            -169.473087,
            65.57429
          ],
          [
            -169.3801,
            65.2653
          ],
          [
            -169.1182,
            64.7804
          ],
          [
            -168.039583,
            64.273455
          ],
          [
            -172.3,
            64.2
          ],
          [
            -180,
            62.1
          ],
          [
            -180,
            50
          ],
          [
            -180,
            50
          ],
          [
            -185.859907,
            50.687849
          ],
          [
            -187.645443,
            50.483925
          ],
          [
            -189.7961,
            50.2383
          ],
          [
            -190.21425,
            50.154218
          ],
          [
            -198.5627,
            48.4755
          ],
          [
            -199.074963,
            48.324829
          ],
          [
            -199.718651,
            48.041332
          ],
          [
            -201.168,
            47.403
          ],
          [
            -201.929445,
            47.012516
          ],
          [
            -205.2049,
            45.3328
          ],
          [
            -207.800613,
            43.806106
          ],
          [
            -208.9498,
            43.1302
          ],
          [
            148.341509,
            41.326793
          ],
          [
            147.5707,
            40.8136
          ],
          [
            146.810089,
            40.246961
          ],
          [
            144.3294,
            38.3989
          ],
          [
            141.3,
            35.9
          ],
          [
            139.9,
            34.8
          ],
          [
            139.3,
            35
          ]
        ]
      }
    },
    {
      "type": "Feature",
      "properties": {
        "corridor": "CAPE",
        "scenario": "CAPE_VAR1_service",
        "length_nm": 20955.10362663839
      },
      "geometry": {
        "type": "LineString",
        "coordinates": [
          [
            4.14,
            51.95
          ],
          [
            4.047588,
            51.835844
          ],
          [
            3.996602,
            51.85732
          ],
          [
            3.9,
            52
          ],
          [
            3.559619,
            51.659619
          ],
          [
            3.4,
            51.5
          ],
          [
            2.356699,
            51.178984
          ],
          [
            2.1,
            51.1
          ],
          [
            1.813195,
            50.988387
          ],
          [
            1.567687,
            50.892845
          ],
          [
            1.441366,
            50.849032
          ],
          [
            1.3,
            50.8
          ],
          [
            1.193894,
            50.765311
          ],
          [
            0.39288,
            50.503441
          ],
          [
            -0.343359,
            50.262748
          ],
          [
            -0.364394,
            50.255871
          ],
          [
            -0.545959,
            50.196513
          ],
          [
            -0.671539,
            50.155459
          ],
          [
            -1.3,
            49.95
          ],
          [
            -1.47977,
            49.895072
          ],
          [
            -1.665743,
            49.838248
          ],
          [
            -1.93365,
            49.75639
          ],
          [
            -1.992006,
            49.738559
          ],
          [
            -2.39189,
            49.616376
          ],
          [
            -3.197043,
            49.370363
          ],
          [
            -3.986163,
            49.129249
          ],
          [
            -4.030414,
            49.115729
          ],
          [
            -4.270518,
            49.042365
          ],
          [
            -5.06401,
            48.799916
          ],
          [
            -5.5,
            48.6667
          ],
          [
            -6.698867,
            47.340067
          ],
          [
            -7.954994,
            45.668797
          ],
          [
            -8.49576,
            44.934776
          ],
          [
            -9.019938,
            43.924891
          ],
          [
            -9.142206,
            43.689329
          ],
          [
            -9.14264,
            43.688493
          ],
          [
            -9.143299,
            43.687223
          ],
          [
            -9.5,
            43
          ],
          [
            -9.9844,
            40.7798
          ],
          [
            -9.6,
            38.5
          ],
          [
            -9.452092,
            37.781589
          ],
          [
            -9.25,
            36.8
          ],
          [
            -8.219465,
            36.549727
          ],
          [
            -7.26966,
            36.31906
          ],
          [
            -5.75,
            35.95
          ],
          [
            -7.1,
            34.4
          ],
          [
            -7.7875,
            34.076471
          ],
          [
            -8.751058,
            33.623031
          ],
          [
            -8.8,
            33.6
          ],
          [
            -10.1,
            31.8
          ],
          [
            -12.194387,
            29.156452
          ],
          [
            -13.618653,
            27.705078
          ],
          [
            -18,
            21
          ],
          [
            -18,
            15
          ],
          [
            -17,
            11
          ],
          [
            -13.4277,
            5.5302
          ],
          [
            -10,
            -2e-05
          ],
          [
            -5.531121,
            -5.586708
          ],
          [
            -1.989182,
            -10.0146
          ],
          [
            -1.100476,
            -11.1256
          ],
          [
            -1.087497,
            -11.141825
          ],
          [
            0.000405,
            -12.501846
          ],
          [
            1.7833,
            -14.7307
          ],
          [
            3.542734,
            -16.929822
          ],
          [
            5.653262,
            -19.567777
          ],
          [
            7.89386,
            -22.368307
          ],
          [
            10.425227,
            -25.53227
          ],
          [
            12.499733,
            -28.1252
          ],
          [
            18,
            -35
          ],
          [
            22,
            -35
          ],
          [
            26,
            -34.5
          ],
          [
            28.5,
            -33.5
          ],
          [
            32,
            -30
          ],
          [
            32.3667,
            -29.2302
          ],
          [
            33.2188,
            -27.5062
          ],
          [
            33.6882,
            -26.593
          ],
          [
            34,
            -26
          ],
          [
            36,
            -24
          ],
          [
            38.929,
            -19.5234
          ],
          [
            41.7,
            -15
          ],
          [
            45.2949,
            -14.0672
          ],
          [
            45.6,
            -14
          ],
          [
            45.9083,
            -13.6955
          ],
          [
            50,
            -10
          ],
          [
            54.286051,
            -10.031461
          ],
          [
            54.9998,
            -10.0367
          ],
          [
            60,
            -10
          ],
          [
            62.5333,
            -7.5169
          ],
          [
            64.95296,
            -5.104003
          ],
          [
            64.999898,
            -5.057196
          ],
          [
            64.9999,
            -5.057193
          ],
          [
            65.0379,
            -5.0193
          ],
          [
            66.708666,
            -3.334083
          ],
          [
            67.449371,
            -2.586972
          ],
          [
            67.5237,
            -2.512
          ],
          [
            70,
            -3e-05
          ],
          [
            73,
            4
          ],
          [
            74.822653,
            4.467475
          ],
          [
            76.5453,
            4.9093
          ],
          [
            80.1,
            5.8
          ],
          [
            81.9,
            5.9
          ],
          [
            85.9479,
            6.1983
          ],
          [
            90,
            6.4664
          ],
          [
            94,
            6.7
          ],
          [
            97,
            7
          ],
          [
            100.6,
            3.2
          ],
          [
            102,
            2
          ],
          [
            103.6,
            1.1
          ],
          [
            104.482294,
            1.341312
          ],
          [
            109.934071,
            7.545272
          ],
          [
            111.913427,
            9.797721
          ],
          [
            115.044525,
            13.360816
          ],
          [
            119.9,
            14.4
          ],
          [
            119.4,
            17
          ],
          [
            120,
            19
          ],
          [
            123,
            19
          ],
          [
            124.413699,
            21.041861
          ],
          [
            124.53553,
            21.217826
          ],
          [
            125.4371,
            22.52
          ],
          [
            128,
            26
          ],
          [
            128.781876,
            26.282774
          ],
          [
            133.395352,
            27.951286
          ],
          [
            133.8895,
            28.13
          ],
          [
            135.371219,
            28.583451
          ],
          [
            136.643593,
            30.428384
          ],
          [
            137.1574,
            31.1734
          ],
          [
            137.503152,
            31.630595
          ],
          [
            139.417351,
            34.161782
          ],
          [
            139.616699,
            34.425385
          ],
          [
            139.9,
            34.8
          ],
          [
            139.3,
            35
          ]
        ]
      }
    }
  ]
}