{"type": "FeatureCollection", "features": [{"type": "Feature", "geometry": {"type": "LineString", "coordinates": [[4.14, 51.95], [4.04758799999999, 51.835844], [3.9966019999999958, 51.85732], [3.9000000000000057, 52], [3.559618999999998, 51.659619], [3.4000000000000057, 51.5], [2.356698999999992, 51.178984], [2.0999999999999943, 51.1], [1.8131950000000074, 50.988387], [1.5676870000000065, 50.892845], [1.441365999999988, 50.849032], [1.3963660000000004, 50.760438], [1.117256999999995, 50.563512], [0.9227380000000096, 50.518891], [1.117256999999995, 50.563512], [0.49638899999999353, 50.420874], [0.2969200000000001, 50.375048], [-0.33791400000001204, 50.260643], [-0.3402680000000089, 50.260219], [-0.3643940000000043, 50.255871], [-0.5459590000000105, 50.196513], [-0.6715389999999957, 50.155459], [-1.3000000000000114, 49.95], [-1.479770000000002, 49.895072], [-1.665742999999992, 49.838248], [-1.93365, 49.75639], [-1.9920060000000035, 49.738559], [-2.3918899999999894, 49.616376], [-3.197043000000008, 49.370363], [-3.986163000000005, 49.129249], [-4.0304140000000075, 49.115729], [-4.27051800000001, 49.042365], [-5.064009999999996, 48.799916], [-5.5, 48.6667], [-6.698867000000007, 47.340067], [-7.954993999999999, 45.668797], [-8.49575999999999, 44.934776], [-9.019937999999996, 43.924891], [-9.142205999999987, 43.689329], [-9.14264, 43.688493], [-9.143299000000013, 43.687223], [-9.5, 43], [-9.984399999999994, 40.7798], [-9.599999999999994, 38.5], [-9.452091999999993, 37.781589], [-9.25, 36.8], [-8.219465000000014, 36.549727], [-7.269659999999988, 36.31906], [-5.75, 35.95], [-5.354867000000013, 35.968819], [-5.269383000000005, 35.97289], [-4.699999999999989, 36], [-3.683042999999998, 36.156455], [-3.670714000000004, 36.158352], [-3.2642250000000104, 36.220888], [-2.5906750000000045, 36.324512], [-2.244792999999987, 36.377724], [-1.6243900000000053, 36.473171], [-0.36666700000000674, 36.666667], [3.0999999999999943, 37.2], [7.5, 37.4], [10.143100000000004, 37.4851], [10.372293000000013, 37.489085], [11, 37.5], [11.172235, 37.454891], [11.82783599999999, 37.283186], [12.086300999999992, 37.215493], [12.097003999999998, 37.212689], [12.110644000000008, 37.209117], [13.263819000000012, 36.907095], [15.199999999999989, 36.4], [16.726587999999992, 36.086854], [17.902084000000002, 35.845726], [21.407365, 35.126694], [23, 34.8], [24.926663999999988, 34.187436], [25.478721000000007, 34.011915], [26.306431000000003, 33.748752], [27.62979999999999, 33.328], [27.92754199999999, 33.219565], [28.212434000000002, 33.115811], [28.90552500000001, 32.863395], [30.408377, 32.316071], [32.099999999999994, 31.7], [32.387159, 31.298117], [32.306670999999994, 30.945814], [32.38220200000001, 30.318359], [32.55798300000001, 30.213982], [32.599999999999994, 29.7], [33.75, 27.9], [34.5, 27], [37, 23.6], [38.900000000000006, 20.75], [41.19999999999999, 16.3], [42, 15], [43.30000000000001, 12.7], [43.74658600000001, 12.40439], [45, 12], [51, 13], [53.059021, 12.577758], [54.708500000000015, 12.2395], [58.39510000000001, 11.4317], [59.89400499999999, 11.083455], [60.825733000000014, 10.866984], [62.060100000000006, 10.5802], [64.303249, 10.031585], [64.69886200000002, 9.934828], [64.992809, 9.862937], [65.70440000000002, 9.6889], [68.858995, 8.881605], [69.32909999999998, 8.7613], [69.67173300000002, 8.6701], [69.99991499999999, 8.582747], [70.81742600000001, 8.365148], [70.84994, 8.356493], [72.93540000000002, 7.8014], [75.96680700000002, 6.966807], [76.52510000000001, 6.8131], [80.10000000000002, 5.8], [81.89999999999998, 5.9], [85.9479, 6.1983], [90, 6.4664], [94, 6.7], [97, 7], [100.60000000000002, 3.2], [102, 2], [103.60000000000002, 1.1], [104.48229400000002, 1.341312], [109.93407100000002, 7.545272], [111.91342700000001, 9.797721], [115.04452500000002, 13.360816], [119.89999999999998, 14.4], [119.39999999999998, 17], [120, 19], [123, 19], [124.41369900000001, 21.041861], [124.53553, 21.217826], [125.43709999999999, 22.52], [128, 26], [128.781876, 26.282774], [133.395352, 27.951286], [133.8895, 28.13], [135.371219, 28.583451], [136.643593, 30.428384], [137.1574, 31.1734], [137.503152, 31.630595], [139.417351, 34.161782], [139.61669900000004, 34.425385], [139.89999999999998, 34.8], [139.65, 35.45]]}, "properties": {"corridor": "SUEZ"}}, {"type": "Feature", "geometry": {"type": "LineString", "coordinates": [[4.14, 51.95], [4.04758799999999, 51.835844], [3.9966019999999958, 51.85732], [3.9000000000000057, 52], [3.559618999999998, 51.659619], [3.4000000000000057, 51.5], [2.356698999999992, 51.178984], [2.0999999999999943, 51.1], [1.8131950000000074, 50.988387], [1.5676870000000065, 50.892845], [1.441365999999988, 50.849032], [1.3000000000000114, 50.8], [1.1938940000000002, 50.765311], [0.392879999999991, 50.503441], [-0.3433589999999924, 50.262748], [-0.3643940000000043, 50.255871], [-0.5459590000000105, 50.196513], [-0.6715389999999957, 50.155459], [-1.3000000000000114, 49.95], [-1.479770000000002, 49.895072], [-1.665742999999992, 49.838248], [-1.93365, 49.75639], [-1.9920060000000035, 49.738559], [-2.3918899999999894, 49.616376], [-3.197043000000008, 49.370363], [-3.986163000000005, 49.129249], [-4.0304140000000075, 49.115729], [-4.27051800000001, 49.042365], [-5.064009999999996, 48.799916], [-5.5, 48.6667], [-6.698867000000007, 47.340067], [-7.954993999999999, 45.668797], [-8.49575999999999, 44.934776], [-9.019937999999996, 43.924891], [-9.142205999999987, 43.689329], [-9.14264, 43.688493], [-9.143299000000013, 43.687223], [-9.5, 43], [-9.984399999999994, 40.7798], [-9.599999999999994, 38.5], [-9.452091999999993, 37.781589], [-9.25, 36.8], [-8.219465000000014, 36.549727], [-7.269659999999988, 36.31906], [-5.75, 35.95], [-7.099999999999994, 34.4], [-7.787499999999994, 34.076471], [-8.751058, 33.623031], [-8.800000000000011, 33.6], [-10.099999999999994, 31.8], [-12.194387000000006, 29.156452], [-13.618652999999995, 27.705078], [-18, 21], [-18, 15], [-17, 11], [-13.427699999999987, 5.5302], [-10, -2e-05], [-5.531121000000013, -5.586708], [-1.9891819999999996, -10.0146], [-1.1004759999999862, -11.1256], [-1.0874970000000133, -11.141825], [0.00040500000000065484, -12.501846], [1.783299999999997, -14.7307], [3.542733999999996, -16.929822], [5.653262000000012, -19.567777], [7.893859999999989, -22.368307], [10.425227000000007, -25.53227], [12.499732999999992, -28.1252], [18, -35], [22, -35], [26, -34.5], [28.5, -33.5], [32, -30], [32.36670000000001, -29.2302], [33.21879999999999, -27.5062], [33.688199999999995, -26.593], [34, -26], [36, -24], [38.929, -19.5234], [41.69999999999999, -15], [45.294899999999984, -14.0672], [45.599999999999994, -14], [45.9083, -13.6955], [50, -10], [54.286050999999986, -10.031461], [54.99979999999999, -10.0367], [60, -10], [62.5333, -7.5169], [64.95296000000002, -5.104003], [64.999898, -5.057196], [64.9999, -5.057193], [65.03789999999998, -5.0193], [66.708666, -3.334083], [67.44937099999999, -2.586972], [67.52370000000002, -2.512], [70, -3e-05], [73, 4], [74.822653, 4.467475], [76.5453, 4.9093], [80.10000000000002, 5.8], [81.89999999999998, 5.9], [85.9479, 6.1983], [90, 6.4664], [94, 6.7], [97, 7], [100.60000000000002, 3.2], [102, 2], [103.60000000000002, 1.1], [104.48229400000002, 1.341312], [109.93407100000002, 7.545272], [111.91342700000001, 9.797721], [115.04452500000002, 13.360816], [119.89999999999998, 14.4], [119.39999999999998, 17], [120, 19], [123, 19], [124.41369900000001, 21.041861], [124.53553, 21.217826], [125.43709999999999, 22.52], [128, 26], [128.781876, 26.282774], [133.395352, 27.951286], [133.8895, 28.13], [135.371219, 28.583451], [136.643593, 30.428384], [137.1574, 31.1734], [137.503152, 31.630595], [139.417351, 34.161782], [139.61669900000004, 34.425385], [139.89999999999998, 34.8], [139.65, 35.45]]}, "properties": {"corridor": "CAPE"}}, {"type": "Feature", "geometry": {"type": "LineString", "coordinates": [[4.14, 51.95], [4.04758799999999, 51.835844], [3.9966019999999958, 51.85732], [3.9000000000000057, 52], [3.3273880000000133, 52.241911], [3.3246499999999912, 52.243068], [3.028875999999997, 52.368023], [3.2073389999999904, 53.016127], [3.219350999999989, 53.059747], [3.3405799999999886, 53.5], [3.4666870000000074, 53.95797], [3.562694999999991, 54.306629], [3.7799459999999954, 55.095593], [3.875166000000007, 55.441392], [4.09776500000001, 56.249776], [4.18583000000001, 56.569592], [4.598435999999992, 58.068003], [4.800000000000011, 58.8], [4.5833900000000085, 59.305424], [4.581716999999998, 59.309328], [4.199999999999989, 60.2], [4.160201999999998, 60.91637], [4.114614999999986, 61.736927], [4.099999999999994, 62], [4.1784000000000106, 62.961], [12, 68], [17, 70], [20.921784000000002, 70.740799], [23.400000000000006, 71.15], [27.099999999999994, 71.3], [25.52910399999999, 70.55032], [27.099999999999994, 71.3], [32.03467899999998, 70.633107], [45.83391900000001, 69.55166], [56.93469999999999, 69.4851], [57.55000000000001, 70.2043], [60.53820000000002, 71.2908], [69.59100000000001, 73.6808], [72.2716, 73.7425], [76.2267, 73.7178], [81.73828100000003, 74.54333], [89.82421899999997, 76.142958], [93.515625, 77.254479], [100.546875, 77.655346], [105.73242199999999, 77.989049], [114.16992199999999, 77.427824], [119.97070300000001, 75.430979], [122.08007800000001, 74.54333], [127.08984399999997, 74.259738], [130.429688, 73.627789], [132.1875, 72.633374], [135.87890600000003, 72.422268], [138.69140600000003, 73.073844], [145.56190000000004, 73.058584], [152.566956, 72.614433], [159.257813, 71.663663], [179.6, 69.0], [-179.6, 69.0], [-169.0, 66.0], [-169.473087, 65.57429], [-169.3801, 65.2653], [-169.1182, 64.7804], [-168.039583, 64.273455], [-172.3, 64.2], [-180, 62.1], [-180, 50], [-180, 50], [179.546718, 52.444362], [-179.6, 54.5], [-180, 50], [-180, 50], [174.14009299999998, 50.687849], [172.354557, 50.483925], [170.20389999999998, 50.2383], [169.78575, 50.154218], [161.4373, 48.4755], [160.92503699999997, 48.324829], [160.28134899999998, 48.041332], [158.832, 47.403], [158.070555, 47.012516], [154.7951, 45.3328], [152.199387, 43.806106], [151.05020000000002, 43.1302], [148.34150899999997, 41.326793], [147.5707, 40.8136], [146.810089, 40.246961], [144.32939999999996, 38.3989], [141.3, 35.9], [139.89999999999998, 34.8], [139.65, 35.45]]}, "properties": {"corridor": "NSR"}}]}